{"type": "FeatureCollection", "features": [ {"type": "Feature", "properties": {"norad_id": 31736, "name": "FENGYUN 1C DEB", "group": "fengyun-1c-debris", "lat": 34.322521800504894, "lon": -20.733692073255124, "alt_km": 849.1379059219471, "timestamp": "2025-12-09T05:43:21.009934+00:00", "meta": {"OBJECT_NAME": "FENGYUN 1C DEB", "OBJECT_ID": "1999-025CEK", "EPOCH": "2025-12-07T06:00:46.728576", "MEAN_MOTION": 14.14178475, "ECCENTRICITY": 0.00109922, "INCLINATION": 98.6782, "RA_OF_ASC_NODE": 343.321, "ARG_OF_PERICENTER": 257.8319, "MEAN_ANOMALY": 102.1623, "EPHEMERIS_TYPE": 0, "CLASSIFICATION_TYPE": "U", "NORAD_CAT_ID": 31736, "ELEMENT_SET_NO": 999, "REV_AT_EPOCH": 63987, "BSTAR": 0.00026653832, "MEAN_MOTION_DOT": 4.65e-06, "MEAN_MOTION_DDOT": 0}, "tle": {"line1": "1 31736U 99025CEK 25341.25054084  .00000465  00000+0  26654-3 0  9998", "line2": "2 31736  98.6782 343.3210 0010992 257.8319 102.1623 14.14178475639874"}}, "geometry": {"type": "Point", "coordinates": [-20.733692073255124, 34.322521800504894]}}, {"type": "Feature", "properties": {"norad_id": 31737, "name": "FENGYUN 1C DEB", "group": "fengyun-1c-debris", "lat": -12.082276518007157, "lon": 18.569446955426667, "alt_km": 587.2815389063517, "timestamp": "2025-12-09T05:43:21.009947+00:00", "meta": {"OBJECT_NAME": "FENGYUN 1C DEB", "OBJECT_ID": "1999-025CEL", "EPOCH": "2025-12-08T20:45:58.877856", "MEAN_MOTION": 14.68697367, "ECCENTRICITY": 0.014918, "INCLINATION": 97.9174, "RA_OF_ASC_NODE": 16.5009, "ARG_OF_PERICENTER": 28.0348, "MEAN_ANOMALY": 149.0562, "EPHEMERIS_TYPE": 0, "CLASSIFICATION_TYPE": "U", "NORAD_CAT_ID": 31737, "ELEMENT_SET_NO": 999, "REV_AT_EPOCH": 98142, "BSTAR": 0.00093815, "MEAN_MOTION_DOT": 6.422e-05, "MEAN_MOTION_DDOT": 0}, "tle": {"line1": "1 31737U 99025CEL 25342.86526479  .00006422  00000+0  93815-3 0  9991", "line2": "2 31737  97.9174  16.5009 0149180  28.0348 149.0562 14.68697367981427"}}, "geometry": {"type": "Point", "coordinates": [18.569446955426667, -12.082276518007157]}}, {"type": "Feature", "properties": {"norad_id": 31738, "name": "FENGYUN 1C DEB", "group": "fengyun-1c-debris", "lat": -7.487251366267477, "lon": 51.72535354051944, "alt_km": 1046.2187554383463, "timestamp": "2025-12-09T05:43:21.009957+00:00", "meta": {"OBJECT_NAME": "FENGYUN 1C DEB", "OBJECT_ID": "1999-025CEM", "EPOCH": "2025-11-17T10:08:15.850752", "MEAN_MOTION": 13.84884182, "ECCENTRICITY": 0.03082109, "INCLINATION": 99.3633, "RA_OF_ASC_NODE": 28.6808, "ARG_OF_PERICENTER": 167.6176, "MEAN_ANOMALY": 193.2777, "EPHEMERIS_TYPE": 0, "CLASSIFICATION_TYPE": "U", "NORAD_CAT_ID": 31738, "ELEMENT_SET_NO": 999, "REV_AT_EPOCH": 61907, "BSTAR": 0.0026324864, "MEAN_MOTION_DOT": 4.259e-05, "MEAN_MOTION_DDOT": 0}, "tle": {"line1": "1 31738U 99025CEM 25321.42240568  .00004259  00000+0  26325-2 0  9990", "line2": "2 31738  99.3633  28.6808 0308210 167.6176 193.2777 13.84884182619073"}}, "geometry": {"type": "Point", "coordinates": [51.72535354051944, -7.487251366267477]}}, {"type": "Feature", "properties": {"norad_id": 31739, "name": "FENGYUN 1C DEB", "group": "fengyun-1c-debris", "lat": -23.40157795923679, "lon": -145.20664917160036, "alt_km": 872.1330000963908, "timestamp": "2025-12-09T05:43:21.009967+00:00", "meta": {"OBJECT_NAME": "FENGYUN 1C DEB", "OBJECT_ID": "1999-025CEN", "EPOCH": "2025-12-08T10:10:01.565472", "MEAN_MOTION": 14.19214964, "ECCENTRICITY": 0.01284885, "INCLINATION": 98.7481, "RA_OF_ASC_NODE": 37.8097, "ARG_OF_PERICENTER": 90.5395, "MEAN_ANOMALY": 271.0505, "EPHEMERIS_TYPE": 0, "CLASSIFICATION_TYPE": "U", "NORAD_CAT_ID": 31739, "ELEMENT_SET_NO": 999, "REV_AT_EPOCH": 95425, "BSTAR": 0.00018535067, "MEAN_MOTION_DOT": 3.79e-06, "MEAN_MOTION_DDOT": 0}, "tle": {"line1": "1 31739U 99025CEN 25342.42362923  .00000379  00000+0  18535-3 0  9998", "line2": "2 31739  98.7481  37.8097 0128488  90.5395 271.0505 14.19214964954254"}}, "geometry": {"type": "Point", "coordinates": [-145.20664917160036, -23.40157795923679]}}, {"type": "Feature", "properties": {"norad_id": 31740, "name": "FENGYUN 1C DEB", "group": "fengyun-1c-debris", "lat": -47.374207860132714, "lon": -36.79573551759421, "alt_km": 773.1782448329022, "timestamp": "2025-12-09T05:43:21.009978+00:00", "meta": {"OBJECT_NAME": "FENGYUN 1C DEB", "OBJECT_ID": "1999-025CEP", "EPOCH": "2025-12-07T23:23:54.081600", "MEAN_MOTION": 14.42100668, "ECCENTRICITY": 0.00243063, "INCLINATION": 99.8211, "RA_OF_ASC_NODE": 152.6005, "ARG_OF_PERICENTER": 82.3936, "MEAN_ANOMALY": 69.7261, "EPHEMERIS_TYPE": 0, "CLASSIFICATION_TYPE": "U", "NORAD_CAT_ID": 31740, "ELEMENT_SET_NO": 999, "REV_AT_EPOCH": 65006, "BSTAR": 0.0018306589, "MEAN_MOTION_DOT": 5.989e-05, "MEAN_MOTION_DDOT": 0}, "tle": {"line1": "1 31740U 99025CEP 25341.97493150  .00005989  00000+0  18307-2 0  9994", "line2": "2 31740  99.8211 152.6005 0024306  82.3936  69.7261 14.42100668650062"}}, "geometry": {"type": "Point", "coordinates": [-36.79573551759421, -47.374207860132714]}}, {"type": "Feature", "properties": {"norad_id": 31742, "name": "FENGYUN 1C DEB", "group": "fengyun-1c-debris", "lat": 0.7313956467665133, "lon": -157.21329071026665, "alt_km": 710.9278116300429, "timestamp": "2025-12-09T05:43:21.009988+00:00", "meta": {"OBJECT_NAME": "FENGYUN 1C DEB", "OBJECT_ID": "1999-025CER", "EPOCH": "2025-12-07T20:21:42.016608", "MEAN_MOTION": 14.39762968, "ECCENTRICITY": 0.00767794, "INCLINATION": 98.9195, "RA_OF_ASC_NODE": 201.455, "ARG_OF_PERICENTER": 343.7855, "MEAN_ANOMALY": 16.0876, "EPHEMERIS_TYPE": 0, "CLASSIFICATION_TYPE": "U", "NORAD_CAT_ID": 31742, "ELEMENT_SET_NO": 999, "REV_AT_EPOCH": 96579, "BSTAR": 0.0011714462, "MEAN_MOTION_DOT": 3.753e-05, "MEAN_MOTION_DDOT": 0}, "tle": {"line1": "1 31742U 99025CER 25341.84840297  .00003753  00000+0  11714-2 0  9992", "line2": "2 31742  98.9195 201.4550 0076779 343.7855  16.0876 14.39762968965797"}}, "geometry": {"type": "Point", "coordinates": [-157.21329071026665, 0.7313956467665133]}}, {"type": "Feature", "properties": {"norad_id": 31743, "name": "FENGYUN 1C DEB", "group": "fengyun-1c-debris", "lat": -10.022739359994567, "lon": 89.34323053149647, "alt_km": 770.9626533044757, "timestamp": "2025-12-09T05:43:21.010000+00:00", "meta": {"OBJECT_NAME": "FENGYUN 1C DEB", "OBJECT_ID": "1999-025CES", "EPOCH": "2025-12-07T14:49:21.254304", "MEAN_MOTION": 14.31229698, "ECCENTRICITY": 0.00374652, "INCLINATION": 99.1418, "RA_OF_ASC_NODE": 269.2695, "ARG_OF_PERICENTER": 234.4051, "MEAN_ANOMALY": 249.3126, "EPHEMERIS_TYPE": 0, "CLASSIFICATION_TYPE": "U", "NORAD_CAT_ID": 31743, "ELEMENT_SET_NO": 999, "REV_AT_EPOCH": 95567, "BSTAR": 0.0029097178, "MEAN_MOTION_DOT": 7.709e-05, "MEAN_MOTION_DDOT": 0}, "tle": {"line1": "1 31743U 99025CES 25341.61760711  .00007709  00000+0  29097-2 0  9998", "line2": "2 31743  99.1418 269.2695 0037465 234.4051 249.3126 14.31229698955679"}}, "geometry": {"type": "Point", "coordinates": [89.34323053149647, -10.022739359994567]}}, {"type": "Feature", "properties": {"norad_id": 31744, "name": "FENGYUN 1C DEB", "group": "fengyun-1c-debris", "lat": -33.253422625516464, "lon": 100.21883597774412, "alt_km": 828.2384245879684, "timestamp": "2025-12-09T05:43:21.010013+00:00", "meta": {"OBJECT_NAME": "FENGYUN 1C DEB", "OBJECT_ID": "1999-025CET", "EPOCH": "2025-12-04T13:59:28.410144", "MEAN_MOTION": 14.16423838, "ECCENTRICITY": 0.0316256, "INCLINATION": 99.3063, "RA_OF_ASC_NODE": 89.1727, "ARG_OF_PERICENTER": 67.4972, "MEAN_ANOMALY": 295.9356, "EPHEMERIS_TYPE": 0, "CLASSIFICATION_TYPE": "U", "NORAD_CAT_ID": 31744, "ELEMENT_SET_NO": 999, "REV_AT_EPOCH": 94499, "BSTAR": 0.0032306, "MEAN_MOTION_DOT": 0.00010446, "MEAN_MOTION_DDOT": 0}, "tle": {"line1": "1 31744U 99025CET 25338.58296771  .00010446  00000+0  32306-2 0  9990", "line2": "2 31744  99.3063  89.1727 0316256  67.4972 295.9356 14.16423838944997"}}, "geometry": {"type": "Point", "coordinates": [100.21883597774412, -33.253422625516464]}}, {"type": "Feature", "properties": {"norad_id": 31746, "name": "FENGYUN 1C DEB", "group": "fengyun-1c-debris", "lat": 5.9306878885289125, "lon": 104.6939858399364, "alt_km": 656.969186588939, "timestamp": "2025-12-09T05:43:21.010025+00:00", "meta": {"OBJECT_NAME": "FENGYUN 1C DEB", "OBJECT_ID": "1999-025CEV", "EPOCH": "2025-12-08T13:25:49.648224", "MEAN_MOTION": 14.76434428, "ECCENTRICITY": 0.0023745, "INCLINATION": 98.5888, "RA_OF_ASC_NODE": 104.8721, "ARG_OF_PERICENTER": 218.9091, "MEAN_ANOMALY": 141.0408, "EPHEMERIS_TYPE": 0, "CLASSIFICATION_TYPE": "U", "NORAD_CAT_ID": 31746, "ELEMENT_SET_NO": 999, "REV_AT_EPOCH": 96966, "BSTAR": 0.0049017, "MEAN_MOTION_DOT": 0.00034355, "MEAN_MOTION_DDOT": 0}, "tle": {"line1": "1 31746U 99025CEV 25342.55960241  .00034355  00000+0  49017-2 0  9996", "line2": "2 31746  98.5888 104.8721 0023745 218.9091 141.0408 14.76434428969660"}}, "geometry": {"type": "Point", "coordinates": [104.6939858399364, 5.9306878885289125]}}, {"type": "Feature", "properties": {"norad_id": 31752, "name": "FENGYUN 1C DEB", "group": "fengyun-1c-debris", "lat": -56.72410423471298, "lon": -137.82534470768783, "alt_km": 987.0387529737272, "timestamp": "2025-12-09T05:43:21.010035+00:00", "meta": {"OBJECT_NAME": "FENGYUN 1C DEB", "OBJECT_ID": "1999-025CFB", "EPOCH": "2025-11-28T11:42:46.096128", "MEAN_MOTION": 13.92945252, "ECCENTRICITY": 0.0356614, "INCLINATION": 98.9794, "RA_OF_ASC_NODE": 45.6633, "ARG_OF_PERICENTER": 12.9266, "MEAN_ANOMALY": 348.0748, "EPHEMERIS_TYPE": 0, "CLASSIFICATION_TYPE": "U", "NORAD_CAT_ID": 31752, "ELEMENT_SET_NO": 999, "REV_AT_EPOCH": 93392, "BSTAR": 0.0012622162, "MEAN_MOTION_DOT": 2.723e-05, "MEAN_MOTION_DDOT": 0}, "tle": {"line1": "1 31752U 99025CFB 25332.48803352  .00002723  00000+0  12622-2 0  9999", "line2": "2 31752  98.9794  45.6633 0356614  12.9266 348.0748 13.92945252933926"}}, "geometry": {"type": "Point", "coordinates": [-137.82534470768783, -56.72410423471298]}}]}